{"type": "FeatureCollection", "features": [ {"type": "Feature", "properties": {"norad_id": 32106, "name": "FENGYUN 1C DEB", "group": "fengyun-1c-debris", "lat": 65.65089502780131, "lon": -60.77287002552998, "alt_km": 735.5205064115444, "timestamp": "2025-12-18T15:47:11.508606+00:00", "meta": {"OBJECT_NAME": "FENGYUN 1C DEB", "OBJECT_ID": "1999-025CQY", "EPOCH": "2025-12-14T15:33:56.008224", "MEAN_MOTION": 14.27045005, "ECCENTRICITY": 0.01101626, "INCLINATION": 101.4619, "RA_OF_ASC_NODE": 320.6242, "ARG_OF_PERICENTER": 37.2039, "MEAN_ANOMALY": 323.67, "EPHEMERIS_TYPE": 0, "CLASSIFICATION_TYPE": "U", "NORAD_CAT_ID": 32106, "ELEMENT_SET_NO": 999, "REV_AT_EPOCH": 69419, "BSTAR": 0.003667977, "MEAN_MOTION_DOT": 9.474e-05, "MEAN_MOTION_DDOT": 0}, "tle": {"line1": "1 32106U 99025CQY 25348.64856491  .00009474  00000+0  36680-2 0  9990", "line2": "2 32106 101.4619 320.6242 0110162  37.2039 323.6700 14.27045005694198"}}, "geometry": {"type": "Point", "coordinates": [-60.77287002552998, 65.65089502780131]}}, {"type": "Feature", "properties": {"norad_id": 32109, "name": "FENGYUN 1C DEB", "group": "fengyun-1c-debris", "lat": 5.745620743333269, "lon": -128.8150012379473, "alt_km": 730.6818318999603, "timestamp": "2025-12-18T15:47:11.508616+00:00", "meta": {"OBJECT_NAME": "FENGYUN 1C DEB", "OBJECT_ID": "1999-025CRB", "EPOCH": "2025-12-15T22:26:56.704992", "MEAN_MOTION": 14.3395276, "ECCENTRICITY": 0.02055059, "INCLINATION": 98.3614, "RA_OF_ASC_NODE": 229.3988, "ARG_OF_PERICENTER": 302.7937, "MEAN_ANOMALY": 55.3599, "EPHEMERIS_TYPE": 0, "CLASSIFICATION_TYPE": "U", "NORAD_CAT_ID": 32109, "ELEMENT_SET_NO": 999, "REV_AT_EPOCH": 64934, "BSTAR": 0.00043905437, "MEAN_MOTION_DOT": 1.501e-05, "MEAN_MOTION_DDOT": 0}, "tle": {"line1": "1 32109U 99025CRB 25349.93537853  .00001501  00000+0  43905-3 0  9996", "line2": "2 32109  98.3614 229.3988 0205505 302.7937  55.3599 14.33952760649349"}}, "geometry": {"type": "Point", "coordinates": [-128.8150012379473, 5.745620743333269]}}, {"type": "Feature", "properties": {"norad_id": 32110, "name": "FENGYUN 1C DEB", "group": "fengyun-1c-debris", "lat": -76.47778355735676, "lon": -153.20671969042206, "alt_km": 794.3878693545375, "timestamp": "2025-12-18T15:47:11.508626+00:00", "meta": {"OBJECT_NAME": "FENGYUN 1C DEB", "OBJECT_ID": "1999-025CRC", "EPOCH": "2025-12-15T23:19:37.733664", "MEAN_MOTION": 14.28919204, "ECCENTRICITY": 0.0033408, "INCLINATION": 99.5428, "RA_OF_ASC_NODE": 159.4713, "ARG_OF_PERICENTER": 357.4893, "MEAN_ANOMALY": 154.0044, "EPHEMERIS_TYPE": 0, "CLASSIFICATION_TYPE": "U", "NORAD_CAT_ID": 32110, "ELEMENT_SET_NO": 999, "REV_AT_EPOCH": 64434, "BSTAR": 0.0010448124, "MEAN_MOTION_DOT": 2.604e-05, "MEAN_MOTION_DDOT": 0}, "tle": {"line1": "1 32110U 99025CRC 25349.97196451  .00002604  00000+0  10448-2 0  9997", "line2": "2 32110  99.5428 159.4713 0033408 357.4893 154.0044 14.28919204644342"}}, "geometry": {"type": "Point", "coordinates": [-153.20671969042206, -76.47778355735676]}}, {"type": "Feature", "properties": {"norad_id": 32111, "name": "FENGYUN 1C DEB", "group": "fengyun-1c-debris", "lat": -23.355885042569998, "lon": -4.095526055626111, "alt_km": 865.539970280669, "timestamp": "2025-12-18T15:47:11.508637+00:00", "meta": {"OBJECT_NAME": "FENGYUN 1C DEB", "OBJECT_ID": "1999-025CRD", "EPOCH": "2025-12-17T23:15:28.889568", "MEAN_MOTION": 14.31552028, "ECCENTRICITY": 0.01199865, "INCLINATION": 98.4433, "RA_OF_ASC_NODE": 351.5571, "ARG_OF_PERICENTER": 189.336, "MEAN_ANOMALY": 199.2635, "EPHEMERIS_TYPE": 0, "CLASSIFICATION_TYPE": "U", "NORAD_CAT_ID": 32111, "ELEMENT_SET_NO": 999, "REV_AT_EPOCH": 96106, "BSTAR": 0.00016396968, "MEAN_MOTION_DOT": 4.28e-06, "MEAN_MOTION_DDOT": 0}, "tle": {"line1": "1 32111U 99025CRD 25351.96908437  .00000428  00000+0  16397-3 0  9997", "line2": "2 32111  98.4433 351.5571 0119986 189.3360 199.2635 14.31552028961060"}}, "geometry": {"type": "Point", "coordinates": [-4.095526055626111, -23.355885042569998]}}, {"type": "Feature", "properties": {"norad_id": 32113, "name": "FENGYUN 1C DEB", "group": "fengyun-1c-debris", "lat": 30.906311672735658, "lon": -147.23067264628992, "alt_km": 825.8907401084289, "timestamp": "2025-12-18T15:47:11.508647+00:00", "meta": {"OBJECT_NAME": "FENGYUN 1C DEB", "OBJECT_ID": "1999-025CRF", "EPOCH": "2025-12-14T19:47:44.837664", "MEAN_MOTION": 13.94564965, "ECCENTRICITY": 0.02380847, "INCLINATION": 99.0277, "RA_OF_ASC_NODE": 23.5568, "ARG_OF_PERICENTER": 220.9453, "MEAN_ANOMALY": 137.3616, "EPHEMERIS_TYPE": 0, "CLASSIFICATION_TYPE": "U", "NORAD_CAT_ID": 32113, "ELEMENT_SET_NO": 999, "REV_AT_EPOCH": 62915, "BSTAR": 0.0009179447, "MEAN_MOTION_DOT": 1.508e-05, "MEAN_MOTION_DDOT": 0}, "tle": {"line1": "1 32113U 99025CRF 25348.82482451  .00001508  00000+0  91794-3 0  9997", "line2": "2 32113  99.0277  23.5568 0238084 220.9453 137.3616 13.94564965629157"}}, "geometry": {"type": "Point", "coordinates": [-147.23067264628992, 30.906311672735658]}}, {"type": "Feature", "properties": {"norad_id": 32114, "name": "FENGYUN 1C DEB", "group": "fengyun-1c-debris", "lat": -47.3036670405247, "lon": -79.89093988952938, "alt_km": 649.510789389773, "timestamp": "2025-12-18T15:47:11.508657+00:00", "meta": {"OBJECT_NAME": "FENGYUN 1C DEB", "OBJECT_ID": "1999-025CRG", "EPOCH": "2025-12-06T13:19:21.641376", "MEAN_MOTION": 14.76489439, "ECCENTRICITY": 0.00447682, "INCLINATION": 99.9287, "RA_OF_ASC_NODE": 96.1919, "ARG_OF_PERICENTER": 3.5911, "MEAN_ANOMALY": 356.5605, "EPHEMERIS_TYPE": 0, "CLASSIFICATION_TYPE": "U", "NORAD_CAT_ID": 32114, "ELEMENT_SET_NO": 999, "REV_AT_EPOCH": 65638, "BSTAR": 0.0040574802, "MEAN_MOTION_DOT": 0.0002877, "MEAN_MOTION_DDOT": 0}, "tle": {"line1": "1 32114U 99025CRG 25340.55511159  .00028770  00000+0  40575-2 0  9998", "line2": "2 32114  99.9287  96.1919 0044768   3.5911 356.5605 14.76489439656383"}}, "geometry": {"type": "Point", "coordinates": [-79.89093988952938, -47.3036670405247]}}, {"type": "Feature", "properties": {"norad_id": 32117, "name": "FENGYUN 1C DEB", "group": "fengyun-1c-debris", "lat": -0.9803872988469157, "lon": 38.0253839288989, "alt_km": 810.1562868311457, "timestamp": "2025-12-18T15:47:11.508668+00:00", "meta": {"OBJECT_NAME": "FENGYUN 1C DEB", "OBJECT_ID": "1999-025CRK", "EPOCH": "2025-12-18T02:18:00.201024", "MEAN_MOTION": 14.23964713, "ECCENTRICITY": 0.00265666, "INCLINATION": 98.6134, "RA_OF_ASC_NODE": 37.3263, "ARG_OF_PERICENTER": 76.1616, "MEAN_ANOMALY": 284.2516, "EPHEMERIS_TYPE": 0, "CLASSIFICATION_TYPE": "U", "NORAD_CAT_ID": 32117, "ELEMENT_SET_NO": 999, "REV_AT_EPOCH": 94873, "BSTAR": 0.00078657764, "MEAN_MOTION_DOT": 1.768e-05, "MEAN_MOTION_DDOT": 0}, "tle": {"line1": "1 32117U 99025CRK 25352.09583566  .00001768  00000+0  78658-3 0  9996", "line2": "2 32117  98.6134  37.3263 0026566  76.1616 284.2516 14.23964713948732"}}, "geometry": {"type": "Point", "coordinates": [38.0253839288989, -0.9803872988469157]}}, {"type": "Feature", "properties": {"norad_id": 32119, "name": "FENGYUN 1C DEB", "group": "fengyun-1c-debris", "lat": -64.76093188994217, "lon": -122.61404260771894, "alt_km": 904.7491626685269, "timestamp": "2025-12-18T15:47:11.508679+00:00", "meta": {"OBJECT_NAME": "FENGYUN 1C DEB", "OBJECT_ID": "1999-025CRM", "EPOCH": "2025-12-17T21:16:22.918368", "MEAN_MOTION": 14.02832711, "ECCENTRICITY": 0.008595, "INCLINATION": 99.8868, "RA_OF_ASC_NODE": 214.8358, "ARG_OF_PERICENTER": 38.5368, "MEAN_ANOMALY": 322.189, "EPHEMERIS_TYPE": 0, "CLASSIFICATION_TYPE": "U", "NORAD_CAT_ID": 32119, "ELEMENT_SET_NO": 999, "REV_AT_EPOCH": 93800, "BSTAR": 0.00060078773, "MEAN_MOTION_DOT": 9.1e-06, "MEAN_MOTION_DDOT": 0}, "tle": {"line1": "1 32119U 99025CRM 25351.88637637  .00000910  00000+0  60079-3 0  9999", "line2": "2 32119  99.8868 214.8358 0085950  38.5368 322.1890 14.02832711938001"}}, "geometry": {"type": "Point", "coordinates": [-122.61404260771894, -64.76093188994217]}}, {"type": "Feature", "properties": {"norad_id": 32123, "name": "FENGYUN 1C DEB", "group": "fengyun-1c-debris", "lat": 15.534219370147264, "lon": 158.4390745052043, "alt_km": 708.6021853132343, "timestamp": "2025-12-18T15:47:11.508689+00:00", "meta": {"OBJECT_NAME": "FENGYUN 1C DEB", "OBJECT_ID": "1999-025CRR", "EPOCH": "2025-12-17T10:15:54.659808", "MEAN_MOTION": 14.61477393, "ECCENTRICITY": 0.01595262, "INCLINATION": 98.9404, "RA_OF_ASC_NODE": 159.6179, "ARG_OF_PERICENTER": 278.7629, "MEAN_ANOMALY": 107.3204, "EPHEMERIS_TYPE": 0, "CLASSIFICATION_TYPE": "U", "NORAD_CAT_ID": 32123, "ELEMENT_SET_NO": 999, "REV_AT_EPOCH": 71443, "BSTAR": 0.00024209771, "MEAN_MOTION_DOT": 1.37e-05, "MEAN_MOTION_DDOT": 0}, "tle": {"line1": "1 32123U 99025CRR 25351.42771597  .00001370  00000+0  24210-3 0  9996", "line2": "2 32123  98.9404 159.6179 0159526 278.7629 107.3204 14.61477393714435"}}, "geometry": {"type": "Point", "coordinates": [158.4390745052043, 15.534219370147264]}}, {"type": "Feature", "properties": {"norad_id": 32125, "name": "FENGYUN 1C DEB", "group": "fengyun-1c-debris", "lat": -18.964529745701224, "lon": -23.203402615633394, "alt_km": 566.1132824397791, "timestamp": "2025-12-18T15:47:11.508699+00:00", "meta": {"OBJECT_NAME": "FENGYUN 1C DEB", "OBJECT_ID": "1999-025CRT", "EPOCH": "2025-12-14T04:03:21.187008", "MEAN_MOTION": 14.69917548, "ECCENTRICITY": 0.0174033, "INCLINATION": 99.062, "RA_OF_ASC_NODE": 328.6692, "ARG_OF_PERICENTER": 318.7989, "MEAN_ANOMALY": 40.0184, "EPHEMERIS_TYPE": 0, "CLASSIFICATION_TYPE": "U", "NORAD_CAT_ID": 32125, "ELEMENT_SET_NO": 999, "REV_AT_EPOCH": 70544, "BSTAR": 0.002785531, "MEAN_MOTION_DOT": 0.00021057, "MEAN_MOTION_DDOT": 0}, "tle": {"line1": "1 32125U 99025CRT 25348.16899522  .00021057  00000+0  27855-2 0  9995", "line2": "2 32125  99.0620 328.6692 0174033 318.7989  40.0184 14.69917548705441"}}, "geometry": {"type": "Point", "coordinates": [-23.203402615633394, -18.964529745701224]}}]}